[{"OBJECT_NAME":"ONEWEB-0513","OBJECT_ID":"2022-138U","EPOCH":"2026-03-09T17:33:09.856512","MEAN_MOTION":13.20262759,"ECCENTRICITY":0.00012241,"INCLINATION":87.9239,"RA_OF_ASC_NODE":324.746,"ARG_OF_PERICENTER":113.7955,"MEAN_ANOMALY":246.3307,"EPHEMERIS_TYPE":0,"CLASSIFICATION_TYPE":"U","NORAD_CAT_ID":54131,"ELEMENT_SET_NO":999,"REV_AT_EPOCH":16359,"BSTAR":0.00014770033,"MEAN_MOTION_DOT":7.3e-7,"MEAN_MOTION_DDOT":0},{"OBJECT_NAME":"SL-14 R\/B","OBJECT_ID":"1994-003B","EPOCH":"2026-03-09T17:41:22.645824","MEAN_MOTION":13.1700857,"ECCENTRICITY":0.00173324,"INCLINATION":82.5665,"RA_OF_ASC_NODE":157.3829,"ARG_OF_PERICENTER":94.1857,"MEAN_ANOMALY":18.9829,"EPHEMERIS_TYPE":0,"CLASSIFICATION_TYPE":"U","NORAD_CAT_ID":22970,"ELEMENT_SET_NO":999,"REV_AT_EPOCH":54389,"BSTAR":2.2491534e-5,"MEAN_MOTION_DOT":2.1e-7,"MEAN_MOTION_DDOT":0}]
